[{"OBJECT_NAME":"STARLINK-5050","OBJECT_ID":"2022-119E","EPOCH":"2026-03-09T22:09:50.817312","MEAN_MOTION":15.08836351,"ECCENTRICITY":0.00012955,"INCLINATION":53.2178,"RA_OF_ASC_NODE":287.8552,"ARG_OF_PERICENTER":89.5549,"MEAN_ANOMALY":270.5592,"EPHEMERIS_TYPE":0,"CLASSIFICATION_TYPE":"U","NORAD_CAT_ID":53890,"ELEMENT_SET_NO":999,"REV_AT_EPOCH":19221,"BSTAR":2.9532544e-5,"MEAN_MOTION_DOT":1.82e-6,"MEAN_MOTION_DDOT":0},{"OBJECT_NAME":"CZ-2C DEB","OBJECT_ID":"2011-039F","EPOCH":"2026-03-09T17:45:14.166720","MEAN_MOTION":15.09482172,"ECCENTRICITY":0.00342492,"INCLINATION":97.9174,"RA_OF_ASC_NODE":359.6762,"ARG_OF_PERICENTER":347.2377,"MEAN_ANOMALY":72.5812,"EPHEMERIS_TYPE":0,"CLASSIFICATION_TYPE":"U","NORAD_CAT_ID":37770,"ELEMENT_SET_NO":999,"REV_AT_EPOCH":77853,"BSTAR":0.0024394871,"MEAN_MOTION_DOT":0.00039734,"MEAN_MOTION_DDOT":0}]
